STARLINK-32370          
1 61635U 24191Q   26068.32109516 -.00009212  00000+0 -32541-3 0  9990
2 61635  43.0018 156.2721 0001144 255.1076 104.9649 15.27602679 77483
FLOCK 4G-30             
1 62679U 25009BY  26068.70871344  .00013147  00000+0  49475-3 0  9999
2 62679  97.3969 150.6012 0003795 342.4152  17.6955 15.27244548121341
